STARLINK-1726
1 46362U 20062AP  26061.16668981  .00436344  00000+0  14352-2 0  9991
2 46362  53.0385 298.6220 0007869 144.3816  24.9312 15.88839519  6007
STARLINK-1814
1 46712U 20073AU  26061.16668981  .00309618  00000+0  10333-2 0  9990
2 46712  53.0376 223.2045 0005470 305.2988 172.9612 15.88866863  6019
